{
    "links": {
        "self": "http://www.neowsapp.com/rest/v1/neo/3067565?api_key=iIulBulltgU6a56xZRHN4H3l9WmuAYTsLGpBGhQ2"
    },
    "id": "3067565",
    "neo_reference_id": "3067565",
    "name": "(2000 SS43)",
    "designation": "2000 SS43",
    "nasa_jpl_url": "http://ssd.jpl.nasa.gov/sbdb.cgi?sstr=3067565",
    "absolute_magnitude_h": 24.8,
    "estimated_diameter": {
        "kilometers": {
            "estimated_diameter_min": 0.0291443905,
            "estimated_diameter_max": 0.0651688382
        },
        "meters": {
            "estimated_diameter_min": 29.1443904535,
            "estimated_diameter_max": 65.1688382168
        },
        "miles": {
            "estimated_diameter_min": 0.018109479,
            "estimated_diameter_max": 0.0404940262
        },
        "feet": {
            "estimated_diameter_min": 95.6180819754,
            "estimated_diameter_max": 213.8085311752
        }
    },
    "is_potentially_hazardous_asteroid": false,
    "close_approach_data": [
        {
            "close_approach_date": "2000-09-22",
            "close_approach_date_full": "2000-Sep-22 12:39",
            "epoch_date_close_approach": 969626340000,
            "relative_velocity": {
                "kilometers_per_second": "5.7901696754",
                "kilometers_per_hour": "20844.6108313572",
                "miles_per_hour": "12952.0305468508"
            },
            "miss_distance": {
                "astronomical": "0.0210522186",
                "lunar": "8.1893130354",
                "kilometers": "3149367.061334382",
                "miles": "1956925.9480511916"
            },
            "orbiting_body": "Earth"
        },
        {
            "close_approach_date": "2075-11-06",
            "close_approach_date_full": "2075-Nov-06 16:09",
            "epoch_date_close_approach": 3340282140000,
            "relative_velocity": {
                "kilometers_per_second": "14.4260189955",
                "kilometers_per_hour": "51933.6683839152",
                "miles_per_hour": "32269.5618911055"
            },
            "miss_distance": {
                "astronomical": "0.2958580472",
                "lunar": "115.0887803608",
                "kilometers": "44259733.683479464",
                "miles": "27501723.2390620432"
            },
            "orbiting_body": "Earth"
        }
    ],
    "orbital_data": {
        "orbit_id": "12",
        "orbit_determination_date": "2017-04-06 09:16:49",
        "first_observation_date": "2000-09-26",
        "last_observation_date": "2000-12-01",
        "data_arc_in_days": 66,
        "observations_used": 26,
        "orbit_uncertainty": "8",
        "minimum_orbit_intersection": ".0206023",
        "jupiter_tisserand_invariant": "4.055",
        "epoch_osculation": "2451844.5",
        "eccentricity": ".4093895969545896",
        "semi_major_axis": "1.73129191514456",
        "inclination": "4.093273708887485",
        "ascending_node_longitude": "6.962746087337848",
        "orbital_period": "832.0585320780292",
        "perihelion_distance": "1.022519015792789",
        "perihelion_argument": "353.11524652",
        "aphelion_distance": "2.44006481449633",
        "perihelion_time": "2451810.141080601869",
        "mean_anomaly": "14.86579429987408",
        "mean_motion": ".432661869473192",
        "equinox": "J2000",
        "orbit_class": {
            "orbit_class_type": "AMO",
            "orbit_class_description": "Near-Earth asteroid orbits similar to that of 1221 Amor",
            "orbit_class_range": "1.017 AU < q (perihelion) < 1.3 AU"
        }
    },
    "is_sentry_object": false
}